NORAD_CAT_ID,OBJECT_NAME,OBJECT_TYPE,EPOCH,MEAN_MOTION,ECCENTRICITY,INCLINATION,RA_OF_ASC_NODE,ARG_OF_PERICENTER,MEAN_ANOMALY,BSTAR,MEAN_MOTION_DOT,MEAN_MOTION_DDOT,TLE_LINE0,TLE_LINE1,TLE_LINE2,SEMIMAJOR_AXIS,PERIOD,APOGEE,PERIGEE,DECAYED
52542.0,STARLINK-3937,PAYLOAD,2023-12-29 13:45:26,15.08841338,0.0001306,53.2161,125.4731,84.0664,276.0477,1.5192e-05,-4.6e-07,0.0,0 STARLINK-3937,1 52542U 22051K   23363.57321918 -.00000046  00000-0  15192-4 0  9994,2 52542  53.2161 125.4731 0001306  84.0664 276.0477 15.08841338 90507,6917.876,95.437,540.645,538.838,0.0
52542.0,STARLINK-3937,PAYLOAD,2023-12-30 12:00:52,15.088192,0.0001378,53.2158,121.3098,84.76,275.355,-5.4717e-05,-1.158e-05,0.0,0 STARLINK-3937,1 52542U 22051K   23364.50060458 -.00001158  00000-0 -54717-4 0  9999,2 52542  53.2158 121.3098 0001378  84.7600 275.3550 15.08819200 90710,6917.944,95.439,540.762,538.856,0.0
52542.0,STARLINK-3937,PAYLOAD,2023-12-30 13:36:15,15.08820016,0.0001382,53.216,121.0124,82.662,277.4529,-4.9291e-05,-1.072e-05,0.0,0 STARLINK-3937,1 52542U 22051K   23364.56684492 -.00001072  00000-0 -49291-4 0  9991,2 52542  53.2160 121.0124 0001382  82.6620 277.4529 15.08820016 90653,6917.941,95.439,540.763,538.85,0.0
52542.0,STARLINK-3937,PAYLOAD,2023-12-31 11:51:38,15.08835235,0.0001426,53.2164,116.8512,58.5798,301.5333,7.5147e-05,9.08e-06,0.0,0 STARLINK-3937,1 52542U 22051K   23365.49419826  .00000908  00000-0  75147-4 0  9995,2 52542  53.2164 116.8512 0001426  58.5798 301.5333 15.08835235 90861,6917.895,95.438,540.746,538.773,0.0
52542.0,STARLINK-3937,PAYLOAD,2023-12-31 15:02:24,15.08842824,0.0001416,53.2163,116.2546,82.8835,277.2318,0.00016442,2.33e-05,0.0,0 STARLINK-3937,1 52542U 22051K   23365.62667248  .00002330  00000-0  16442-3 0  9996,2 52542  53.2163 116.2546 0001416  82.8835 277.2318 15.08842824 90888,6917.872,95.437,540.716,538.757,0.0
52542.0,STARLINK-3937,PAYLOAD,2024-01-01 13:17:47,15.08851904,0.0001505,53.2164,112.0913,72.1912,287.9244,0.00029545,4.419e-05,0.0,0 STARLINK-3937,1 52542U 22051K   24001.55402618  .00004419  00000-0  29545-3 0  9992,2 52542  53.2164 112.0913 0001505  72.1912 287.9244 15.08851904 90951,6917.844,95.437,540.75,538.668,0.0
52542.0,STARLINK-3937,PAYLOAD,2024-01-01 16:28:33,15.08863284,0.0001551,53.2157,111.4965,71.7345,288.3816,0.00046738,7.163e-05,0.0,0 STARLINK-3937,1 52542U 22051K   24001.68650445  .00007163  00000-0  46738-3 0  9991,2 52542  53.2157 111.4965 0001551  71.7345 288.3816 15.08863284 91044,6917.809,95.436,540.747,538.601,0.0
52542.0,STARLINK-3937,PAYLOAD,2024-01-02 11:33:11,15.08853521,0.0001763,53.2149,107.9241,132.2151,227.8991,2.7299e-05,1.47e-06,0.0,0 STARLINK-3937,1 52542U 22051K   24002.48137991  .00000147  00000-0  27299-4 0  9993,2 52542  53.2149 107.9241 0001763 132.2151 227.8991 15.08853521 91163,6917.839,95.437,540.924,538.484,0.0
52542.0,STARLINK-3937,PAYLOAD,2024-01-02 13:08:34,15.08855239,0.0001673,53.2149,107.6269,125.1996,234.9153,6.28e-05,7.12e-06,0.0,0 STARLINK-3937,1 52542U 22051K   24002.54761934  .00000712  00000-0  62800-4 0  9995,2 52542  53.2149 107.6269 0001673 125.1996 234.9153 15.08855239 91109,6917.834,95.437,540.856,538.541,0.0
52542.0,STARLINK-3937,PAYLOAD,2024-01-03 11:23:58,15.08839924,0.0001599,53.2153,103.4692,63.2511,296.8645,-9.4534e-05,-1.792e-05,0.0,0 STARLINK-3937,1 52542U 22051K   24003.47498794 -.00001792  00000-0 -94534-4 0  9999,2 52542  53.2153 103.4692 0001599  63.2511 296.8645 15.08839924 91319,6917.881,95.438,540.852,538.639,0.0
52542.0,STARLINK-3937,PAYLOAD,2024-01-03 12:59:22,15.08844251,0.0001713,53.2156,103.1722,59.7058,300.4104,-8.6912e-05,-1.671e-05,0.0,0 STARLINK-3937,1 52542U 22051K   24003.54122760 -.00001671  00000-0 -86912-4 0  9991,2 52542  53.2156 103.1722 0001713  59.7058 300.4104 15.08844251 91251,6917.867,95.437,540.917,538.547,0.0
52542.0,STARLINK-3937,PAYLOAD,2024-01-04 12:50:08,15.0884742,0.0001362,53.2157,98.7091,88.7608,271.3541,0.00018762,2.7e-05,0.0,0 STARLINK-3937,1 52542U 22051K   24004.53482422  .00002700  00000-0  18762-3 0  9994,2 52542  53.2157  98.7091 0001362  88.7608 271.3541 15.08847420 91402,6917.858,95.437,540.665,538.78,0.0
52542.0,STARLINK-3937,PAYLOAD,2024-01-04 16:00:54,15.0885042,0.0001342,53.2156,98.115,84.436,275.6786,0.00024684,3.644e-05,0.0,0 STARLINK-3937,1 52542U 22051K   24004.66730237  .00003644  00000-0  24684-3 0  9996,2 52542  53.2156  98.1150 0001342  84.4360 275.6786 15.08850420 91498,6917.849,95.437,540.642,538.785,0.0
52542.0,STARLINK-3937,PAYLOAD,2024-01-05 12:40:56,15.0884141,0.0001302,53.216,94.2477,94.8047,265.3094,0.00010859,1.441e-05,0.0,0 STARLINK-3937,1 52542U 22051K   24005.52842740  .00001441  00000-0  10859-3 0  9997,2 52542  53.2160  94.2477 0001302  94.8047 265.3094 15.08841410 91627,6917.876,95.437,540.642,538.84,0.0
52542.0,STARLINK-3937,PAYLOAD,2024-01-05 15:51:42,15.08841005,0.0001312,53.2157,93.6522,106.5643,253.5493,9.2085e-05,1.178e-05,0.0,0 STARLINK-3937,1 52542U 22051K   24005.66090662  .00001178  00000-0  92085-4 0  9999,2 52542  53.2157  93.6522 0001312 106.5643 253.5493 15.08841005 91577,6917.877,95.437,540.65,538.835,0.0
52542.0,STARLINK-3937,PAYLOAD,2024-01-06 12:31:43,15.08845015,0.0001351,53.2159,89.7873,91.3131,268.8016,4.9179e-05,4.95e-06,0.0,0 STARLINK-3937,1 52542U 22051K   24006.52202587  .00000495  00000-0  49179-4 0  9993,2 52542  53.2159  89.7873 0001351  91.3131 268.8016 15.08845015 91700,6917.865,95.437,540.665,538.795,0.0
52542.0,STARLINK-3937,PAYLOAD,2024-01-06 15:42:29,15.08847659,0.0001347,53.216,89.1919,95.4031,264.7114,6.3706e-05,7.26e-06,0.0,0 STARLINK-3937,1 52542U 22051K   24006.65450408  .00000726  00000-0  63706-4 0  9993,2 52542  53.2160  89.1919 0001347  95.4031 264.7114 15.08847659 91795,6917.857,95.437,540.654,538.79,0.0
52542.0,STARLINK-3937,PAYLOAD,2024-01-07 10:47:07,15.08836502,0.0001397,53.2164,85.6229,93.6384,266.4768,0.0001023,1.34e-05,0.0,0 STARLINK-3937,1 52542U 22051K   24007.44939034  .00001340  00000-0  10230-3 0  9994,2 52542  53.2164  85.6229 0001397  93.6384 266.4768 15.08836502 91913,6917.891,95.438,540.723,538.79,0.0
52542.0,STARLINK-3937,PAYLOAD,2024-01-07 15:33:16,15.08841217,0.0001413,53.2165,84.7306,95.4664,264.649,0.00011191,1.494e-05,0.0,0 STARLINK-3937,1 52542U 22051K   24007.64810815  .00001494  00000-0  11191-3 0  9998,2 52542  53.2165  84.7306 0001413  95.4664 264.6490 15.08841217 91876,6917.877,95.437,540.719,538.764,0.0
52542.0,STARLINK-3937,PAYLOAD,2024-01-08 12:13:17,15.08848888,0.0001422,53.2174,80.8642,91.048,269.0675,9.4036e-05,1.209e-05,0.0,0 STARLINK-3937,1 52542U 22051K   24008.50922530  .00001209  00000-0  94036-4 0  9996,2 52542  53.2174  80.8642 0001422  91.0480 269.0675 15.08848888 92005,6917.853,95.437,540.702,538.735,0.0
52542.0,STARLINK-3937,PAYLOAD,2024-01-09 12:04:04,15.08843779,0.0001761,53.2184,76.4043,77.2411,282.8778,0.00010631,1.404e-05,0.0,0 STARLINK-3937,1 52542U 22051K   24009.50282987  .00001404  00000-0  10631-3 0  9997,2 52542  53.2184  76.4043 0001761  77.2411 282.8778 15.08843779 92223,6917.869,95.437,540.952,538.516,0.0
52542.0,STARLINK-3937,PAYLOAD,2024-01-09 13:39:27,15.08848397,0.0001717,53.2183,76.1031,76.5077,283.6106,0.00010663,1.41e-05,0.0,0 STARLINK-3937,1 52542U 22051K   24009.56906542  .00001410  00000-0  10663-3 0  9995,2 52542  53.2183  76.1031 0001717  76.5077 283.6106 15.08848397 92165,6917.855,95.437,540.908,538.532,0.0
52542.0,STARLINK-3937,PAYLOAD,2024-01-10 03:57:56,15.08835499,0.0001453,53.2162,73.4333,104.1885,255.9269,2.8967e-05,1.73e-06,0.0,0 STARLINK-3937,1 52542U 22051K   24010.16523244  .00000173  00000-0  28967-4 0  9999,2 52542  53.2162  73.4333 0001453 104.1885 255.9269 15.08835499 92328,6917.894,95.438,540.764,538.754,0.0
52542.0,STARLINK-3937,PAYLOAD,2024-01-10 10:19:28,15.08842715,0.0001512,53.2166,72.245,92.4073,267.7092,5.3722e-06,-2.02e-06,0.0,0 STARLINK-3937,1 52542U 22051K   24010.43019178 -.00000202  00000-0  53722-5 0  9997,2 52542  53.2166  72.2450 0001512  92.4073 267.7092 15.08842715 92293,6917.872,95.437,540.783,538.691,0.0
52542.0,STARLINK-3937,PAYLOAD,2024-01-11 03:48:39,15.08877332,0.0001264,53.2179,68.9699,70.5295,289.5834,0.00028093,4.19e-05,0.0,0 STARLINK-3937,1 52542U 22051K   24011.15879555  .00004190  00000-0  28093-3 0  9990,2 52542  53.2179  68.9699 0001264  70.5295 289.5834 15.08877332 92470,6917.766,95.435,540.506,538.757,0.0
52542.0,STARLINK-3937,PAYLOAD,2024-01-11 10:10:14,15.08833556,0.0001251,53.2168,67.7803,99.6606,260.4528,-0.0002445,-4.176e-05,0.0,0 STARLINK-3937,1 52542U 22051K   24011.42377919 -.00004176  00000-0 -24450-3 0  9996,2 52542  53.2168  67.7803 0001251  99.6606 260.4528 15.08833556 92519,6917.9,95.438,540.631,538.9,0.0
52542.0,STARLINK-3937,PAYLOAD,2024-01-11 13:21:00,15.08831182,0.0001235,53.2164,67.1873,100.5791,259.5341,-0.00027017,-4.584e-05,0.0,0 STARLINK-3937,1 52542U 22051K   24011.55626034 -.00004584  00000-0 -27017-3 0  9990,2 52542  53.2164  67.1873 0001235 100.5791 259.5341 15.08831182 92464,6917.907,95.438,540.627,538.918,0.0
52542.0,STARLINK-3937,PAYLOAD,2024-01-12 10:01:02,15.0882952,0.0001559,53.216,63.3222,97.9233,262.1936,-7.989e-05,-1.559e-05,0.0,0 STARLINK-3937,1 52542U 22051K   24012.41739044 -.00001559  00000-0 -79890-4 0  9998,2 52542  53.2160  63.3222 0001559  97.9233 262.1936 15.08829520 92592,6917.912,95.438,540.856,538.699,0.0
52542.0,STARLINK-3937,PAYLOAD,2024-01-13 03:30:17,15.08827572,0.0001442,53.2164,60.0487,95.0349,265.0808,0.00015287,2.145e-05,0.0,0 STARLINK-3937,1 52542U 22051K   24013.14603501  .00002145  00000-0  15287-3 0  9996,2 52542  53.2164  60.0487 0001442  95.0349 265.0808 15.08827572 92776,6917.918,95.438,540.781,538.786,0.0
52542.0,STARLINK-3937,PAYLOAD,2024-01-13 09:51:50,15.08839707,0.0001597,53.2165,58.8601,94.5679,265.5495,0.00051474,7.914e-05,0.0,0 STARLINK-3937,1 52542U 22051K   24013.41099547  .00007914  00000-0  51474-3 0  9992,2 52542  53.2165  58.8601 0001597  94.5679 265.5495 15.08839707 92748,6917.881,95.438,540.851,538.641,0.0
